STARLINK-6172
1 57130U 23090AF  26090.86551818  .00024182  00000+0  17896-2 0  9998
2 57130  42.9999 153.7649 0004164 249.7915 110.2480 15.02728908153565
